O3B MPOWER F1           
1 54755U 22174A   23333.50604174 -.00000024  00000+0  00000+0 0  9998
2 54755   0.0546  17.8873 0005732 244.9145 194.6138  5.00118399 18808
